[
    {
        "CCSDS_OMM_VERS": "3.0",
        "COMMENT": "GENERATED VIA SPACE-TRACK.ORG API",
        "CREATION_DATE": "2024-08-10T22:36:16",
        "ORIGINATOR": "18 SPCS",
        "OBJECT_NAME": "SL-12 DEB",
        "OBJECT_ID": "1985-042J",
        "CENTER_NAME": "EARTH",
        "REF_FRAME": "TEME",
        "TIME_SYSTEM": "UTC",
        "MEAN_ELEMENT_THEORY": "SGP4",
        "EPOCH": "2024-08-10T21:51:49.599936",
        "MEAN_MOTION": "14.36589519",
        "ECCENTRICITY": "0.00529900",
        "INCLINATION": "66.5685",
        "RA_OF_ASC_NODE": "37.3255",
        "ARG_OF_PERICENTER": "329.0857",
        "MEAN_ANOMALY": "147.6362",
        "EPHEMERIS_TYPE": "0",
        "CLASSIFICATION_TYPE": "U",
        "NORAD_CAT_ID": "18766",
        "ELEMENT_SET_NO": "999",
        "REV_AT_EPOCH": "89281",
        "BSTAR": "0.00357470000000",
        "MEAN_MOTION_DOT": "0.00010628",
        "MEAN_MOTION_DDOT": "0.0000000000000",
        "SEMIMAJOR_AXIS": "7147.926",
        "PERIOD": "100.237",
        "APOAPSIS": "807.668",
        "PERIAPSIS": "731.914",
        "OBJECT_TYPE": "DEBRIS",
        "RCS_SIZE": "SMALL",
        "COUNTRY_CODE": "CIS",
        "LAUNCH_DATE": "1985-05-30",
        "SITE": "TTMTR",
        "DECAY_DATE": null,
        "FILE": "4427289",
        "GP_ID": "264732906",
        "TLE_LINE0": "0 SL-12 DEB",
        "TLE_LINE1": "1 18766U 85042J   24223.91099074  .00010628  00000-0  35747-2 0  9994",
        "TLE_LINE2": "2 18766  66.5685  37.3255 0052990 329.0857 147.6362 14.36589519892818"
    },
    {
        "CCSDS_OMM_VERS": "3.0",
        "COMMENT": "GENERATED VIA SPACE-TRACK.ORG API",
        "CREATION_DATE": "2024-08-10T22:36:16",
        "ORIGINATOR": "18 SPCS",
        "OBJECT_NAME": "THORAD DELTA 1 DEB",
        "OBJECT_ID": "1974-089X",
        "CENTER_NAME": "EARTH",
        "REF_FRAME": "TEME",
        "TIME_SYSTEM": "UTC",
        "MEAN_ELEMENT_THEORY": "SGP4",
        "EPOCH": "2024-08-10T21:51:44.988768",
        "MEAN_MOTION": "12.47433669",
        "ECCENTRICITY": "0.01335330",
        "INCLINATION": "102.1012",
        "RA_OF_ASC_NODE": "211.8565",
        "ARG_OF_PERICENTER": "14.0839",
        "MEAN_ANOMALY": "15.0624",
        "EPHEMERIS_TYPE": "0",
        "CLASSIFICATION_TYPE": "U",
        "NORAD_CAT_ID": "8157",
        "ELEMENT_SET_NO": "999",
        "REV_AT_EPOCH": "26381",
        "BSTAR": "0.00058987000000",
        "MEAN_MOTION_DOT": "0.00000043",
        "MEAN_MOTION_DDOT": "0.0000000000000",
        "SEMIMAJOR_AXIS": "7853.385",
        "PERIOD": "115.437",
        "APOAPSIS": "1580.118",
        "PERIAPSIS": "1370.381",
        "OBJECT_TYPE": "DEBRIS",
        "RCS_SIZE": "SMALL",
        "COUNTRY_CODE": "US",
        "LAUNCH_DATE": "1974-11-15",
        "SITE": "AFWTR",
        "DECAY_DATE": null,
        "FILE": "4427362",
        "GP_ID": "264734027",
        "TLE_LINE0": "0 THORAD DELTA 1 DEB",
        "TLE_LINE1": "1  8157U 74089X   24223.91093737  .00000043  00000-0  58987-3 0  9998",
        "TLE_LINE2": "2  8157 102.1012 211.8565 0133533  14.0839  15.0624 12.47433669263814"
    },
    {
        "CCSDS_OMM_VERS": "3.0",
        "COMMENT": "GENERATED VIA SPACE-TRACK.ORG API",
        "CREATION_DATE": "2024-08-10T22:36:16",
        "ORIGINATOR": "18 SPCS",
        "OBJECT_NAME": "SL-16 DEB",
        "OBJECT_ID": "1992-093EU",
        "CENTER_NAME": "EARTH",
        "REF_FRAME": "TEME",
        "TIME_SYSTEM": "UTC",
        "MEAN_ELEMENT_THEORY": "SGP4",
        "EPOCH": "2024-08-10T21:50:14.977248",
        "MEAN_MOTION": "14.40112991",
        "ECCENTRICITY": "0.00894060",
        "INCLINATION": "70.8609",
        "RA_OF_ASC_NODE": "32.6059",
        "ARG_OF_PERICENTER": "295.4812",
        "MEAN_ANOMALY": "215.4438",
        "EPHEMERIS_TYPE": "0",
        "CLASSIFICATION_TYPE": "U",
        "NORAD_CAT_ID": "22455",
        "ELEMENT_SET_NO": "999",
        "REV_AT_EPOCH": "61846",
        "BSTAR": "0.00782120000000",
        "MEAN_MOTION_DOT": "0.00025944",
        "MEAN_MOTION_DDOT": "0.0000000000000",
        "SEMIMAJOR_AXIS": "7136.262",
        "PERIOD": "99.992",
        "APOAPSIS": "821.930",
        "PERIAPSIS": "694.325",
        "OBJECT_TYPE": "DEBRIS",
        "RCS_SIZE": "SMALL",
        "COUNTRY_CODE": "CIS",
        "LAUNCH_DATE": "1992-12-25",
        "SITE": "TTMTR",
        "DECAY_DATE": null,
        "FILE": "4427316",
        "GP_ID": "264734194",
        "TLE_LINE0": "0 SL-16 DEB",
        "TLE_LINE1": "1 22455U 92093EU  24223.90989557  .00025944  00000-0  78212-2 0  9992",
        "TLE_LINE2": "2 22455  70.8609  32.6059 0089406 295.4812 215.4438 14.40112991618467"
    },
    {
        "CCSDS_OMM_VERS": "3.0",
        "COMMENT": "GENERATED VIA SPACE-TRACK.ORG API",
        "CREATION_DATE": "2024-08-10T22:46:31",
        "ORIGINATOR": "18 SPCS",
        "OBJECT_NAME": "STARLINK-5479",
        "OBJECT_ID": "2023-021AL",
        "CENTER_NAME": "EARTH",
        "REF_FRAME": "TEME",
        "TIME_SYSTEM": "UTC",
        "MEAN_ELEMENT_THEORY": "SGP4",
        "EPOCH": "2024-08-10T21:50:07.172736",
        "MEAN_MOTION": "14.98331722",
        "ECCENTRICITY": "0.00022850",
        "INCLINATION": "70.0018",
        "RA_OF_ASC_NODE": "176.3998",
        "ARG_OF_PERICENTER": "262.0854",
        "MEAN_ANOMALY": "98.0046",
        "EPHEMERIS_TYPE": "0",
        "CLASSIFICATION_TYPE": "U",
        "NORAD_CAT_ID": "55662",
        "ELEMENT_SET_NO": "999",
        "REV_AT_EPOCH": "8273",
        "BSTAR": "0.00002232400000",
        "MEAN_MOTION_DOT": "0.00000174",
        "MEAN_MOTION_DDOT": "0.0000000000000",
        "SEMIMAJOR_AXIS": "6950.188",
        "PERIOD": "96.107",
        "APOAPSIS": "573.641",
        "PERIAPSIS": "570.464",
        "OBJECT_TYPE": "PAYLOAD",
        "RCS_SIZE": "LARGE",
        "COUNTRY_CODE": "US",
        "LAUNCH_DATE": "2023-02-17",
        "SITE": "AFWTR",
        "DECAY_DATE": null,
        "FILE": "4427538",
        "GP_ID": "264738105",
        "TLE_LINE0": "0 STARLINK-5479",
        "TLE_LINE1": "1 55662U 23021AL  24223.90980524  .00000174  00000-0  22324-4 0  9991",
        "TLE_LINE2": "2 55662  70.0018 176.3998 0002285 262.0854  98.0046 14.98331722 82736"
    },
    {
        "CCSDS_OMM_VERS": "3.0",
        "COMMENT": "GENERATED VIA SPACE-TRACK.ORG API",
        "CREATION_DATE": "2024-08-10T22:36:16",
        "ORIGINATOR": "18 SPCS",
        "OBJECT_NAME": "COSMOS 590",
        "OBJECT_ID": "1973-069C",
        "CENTER_NAME": "EARTH",
        "REF_FRAME": "TEME",
        "TIME_SYSTEM": "UTC",
        "MEAN_ELEMENT_THEORY": "SGP4",
        "EPOCH": "2024-08-10T21:49:55.075008",
        "MEAN_MOTION": "12.51093749",
        "ECCENTRICITY": "0.00347630",
        "INCLINATION": "73.9998",
        "RA_OF_ASC_NODE": "54.1095",
        "ARG_OF_PERICENTER": "292.1116",
        "MEAN_ANOMALY": "177.4422",
        "EPHEMERIS_TYPE": "0",
        "CLASSIFICATION_TYPE": "U",
        "NORAD_CAT_ID": "6847",
        "ELEMENT_SET_NO": "999",
        "REV_AT_EPOCH": "32287",
        "BSTAR": "0.00000433590000",
        "MEAN_MOTION_DOT": "-0.00000016",
        "MEAN_MOTION_DDOT": "0.0000000000000",
        "SEMIMAJOR_AXIS": "7838.060",
        "PERIOD": "115.099",
        "APOAPSIS": "1487.173",
        "PERIAPSIS": "1432.678",
        "OBJECT_TYPE": "PAYLOAD",
        "RCS_SIZE": "MEDIUM",
        "COUNTRY_CODE": "CIS",
        "LAUNCH_DATE": "1973-10-02",
        "SITE": "PKMTR",
        "DECAY_DATE": null,
        "FILE": "4427280",
        "GP_ID": "264734669",
        "TLE_LINE0": "0 COSMOS 590",
        "TLE_LINE1": "1  6847U 73069C   24223.90966522 -.00000016  00000-0  43359-5 0  9999",
        "TLE_LINE2": "2  6847  73.9998  54.1095 0034763 292.1116 177.4422 12.51093749322871"
    },
    {
        "CCSDS_OMM_VERS": "3.0",
        "COMMENT": "GENERATED VIA SPACE-TRACK.ORG API",
        "CREATION_DATE": "2024-08-10T22:46:31",
        "ORIGINATOR": "18 SPCS",
        "OBJECT_NAME": "COSMOS 2493 (SKRL 756)",
        "OBJECT_ID": "2013-078A",
        "CENTER_NAME": "EARTH",
        "REF_FRAME": "TEME",
        "TIME_SYSTEM": "UTC",
        "MEAN_ELEMENT_THEORY": "SGP4",
        "EPOCH": "2024-08-10T21:49:47.080416",
        "MEAN_MOTION": "14.94861588",
        "ECCENTRICITY": "0.00150840",
        "INCLINATION": "82.4158",
        "RA_OF_ASC_NODE": "198.6964",
        "ARG_OF_PERICENTER": "8.9926",
        "MEAN_ANOMALY": "351.1562",
        "EPHEMERIS_TYPE": "0",
        "CLASSIFICATION_TYPE": "U",
        "NORAD_CAT_ID": "39490",
        "ELEMENT_SET_NO": "999",
        "REV_AT_EPOCH": "57711",
        "BSTAR": "0.00085766000000",
        "MEAN_MOTION_DOT": "0.00009391",
        "MEAN_MOTION_DDOT": "0.0000000000000",
        "SEMIMAJOR_AXIS": "6960.939",
        "PERIOD": "96.330",
        "APOAPSIS": "593.304",
        "PERIAPSIS": "572.305",
        "OBJECT_TYPE": "PAYLOAD",
        "RCS_SIZE": "MEDIUM",
        "COUNTRY_CODE": "CIS",
        "LAUNCH_DATE": "2013-12-28",
        "SITE": "PKMTR",
        "DECAY_DATE": null,
        "FILE": "4427513",
        "GP_ID": "264736310",
        "TLE_LINE0": "0 COSMOS 2493 (SKRL 756)",
        "TLE_LINE1": "1 39490U 13078A   24223.90957269  .00009391  00000-0  85766-3 0  9991",
        "TLE_LINE2": "2 39490  82.4158 198.6964 0015084   8.9926 351.1562 14.94861588577118"
    }
]